[{"OBJECT_NAME":"STARLINK-30561","OBJECT_ID":"2023-156E","EPOCH":"2026-03-09T07:20:20.312160","MEAN_MOTION":15.30190388,"ECCENTRICITY":0.00012635,"INCLINATION":53.1613,"RA_OF_ASC_NODE":80.2291,"ARG_OF_PERICENTER":88.5537,"MEAN_ANOMALY":271.5609,"EPHEMERIS_TYPE":0,"CLASSIFICATION_TYPE":"U","NORAD_CAT_ID":58032,"ELEMENT_SET_NO":999,"REV_AT_EPOCH":13625,"BSTAR":-8.17844e-6,"MEAN_MOTION_DOT":-6.01e-6,"MEAN_MOTION_DDOT":0},{"OBJECT_NAME":"CONTECSAT-1","OBJECT_ID":"2024-043V","EPOCH":"2026-03-09T22:02:35.535840","MEAN_MOTION":15.34615346,"ECCENTRICITY":0.00100896,"INCLINATION":97.5476,"RA_OF_ASC_NODE":207.3735,"ARG_OF_PERICENTER":223.9905,"MEAN_ANOMALY":136.0535,"EPHEMERIS_TYPE":0,"CLASSIFICATION_TYPE":"U","NORAD_CAT_ID":59117,"ELEMENT_SET_NO":999,"REV_AT_EPOCH":11201,"BSTAR":0.0004369392,"MEAN_MOTION_DOT":0.00014607,"MEAN_MOTION_DDOT":0}]
